{"type": "FeatureCollection", "features": [ {"type": "Feature", "properties": {"norad_id": 35287, "name": "COSMOS 2251 DEB", "group": "cosmos-2251-debris", "lat": -58.016326543296465, "lon": 131.846359260357, "alt_km": 786.8396247678293, "timestamp": "2025-12-08T03:50:07.392085+00:00", "meta": {"OBJECT_NAME": "COSMOS 2251 DEB", "OBJECT_ID": "1993-036AJR", "EPOCH": "2025-12-07T07:22:42.300192", "MEAN_MOTION": 14.36368826, "ECCENTRICITY": 0.00173272, "INCLINATION": 74.0302, "RA_OF_ASC_NODE": 286.1176, "ARG_OF_PERICENTER": 24.3219, "MEAN_ANOMALY": 131.8721, "EPHEMERIS_TYPE": 0, "CLASSIFICATION_TYPE": "U", "NORAD_CAT_ID": 35287, "ELEMENT_SET_NO": 999, "REV_AT_EPOCH": 86814, "BSTAR": 0.00027777062, "MEAN_MOTION_DOT": 7.88e-06, "MEAN_MOTION_DDOT": 0}, "tle": {"line1": "1 35287U 93036AJR 25341.30743403  .00000788  00000+0  27777-3 0  9990", "line2": "2 35287  74.0302 286.1176 0017327  24.3219 131.8721 14.36368826868142"}}, "geometry": {"type": "Point", "coordinates": [131.846359260357, -58.016326543296465]}}, {"type": "Feature", "properties": {"norad_id": 35288, "name": "COSMOS 2251 DEB", "group": "cosmos-2251-debris", "lat": -73.42665967533065, "lon": -51.26081373350256, "alt_km": 655.9337654363089, "timestamp": "2025-12-08T03:50:07.392095+00:00", "meta": {"OBJECT_NAME": "COSMOS 2251 DEB", "OBJECT_ID": "1993-036AJS", "EPOCH": "2025-12-05T20:30:59.855616", "MEAN_MOTION": 14.65344236, "ECCENTRICITY": 0.00396154, "INCLINATION": 73.9509, "RA_OF_ASC_NODE": 28.4958, "ARG_OF_PERICENTER": 262.8912, "MEAN_ANOMALY": 96.775, "EPHEMERIS_TYPE": 0, "CLASSIFICATION_TYPE": "U", "NORAD_CAT_ID": 35288, "ELEMENT_SET_NO": 999, "REV_AT_EPOCH": 87777, "BSTAR": 0.0019659658, "MEAN_MOTION_DOT": 0.00010724, "MEAN_MOTION_DDOT": 0}, "tle": {"line1": "1 35288U 93036AJS 25339.85485944  .00010724  00000+0  19660-2 0  9993", "line2": "2 35288  73.9509  28.4958 0039615 262.8912  96.7750 14.65344236877779"}}, "geometry": {"type": "Point", "coordinates": [-51.26081373350256, -73.42665967533065]}}, {"type": "Feature", "properties": {"norad_id": 35290, "name": "COSMOS 2251 DEB", "group": "cosmos-2251-debris", "lat": -48.896269160841115, "lon": 49.284547925065624, "alt_km": 635.8682777467075, "timestamp": "2025-12-08T03:50:07.392105+00:00", "meta": {"OBJECT_NAME": "COSMOS 2251 DEB", "OBJECT_ID": "1993-036AJU", "EPOCH": "2025-12-06T16:22:51.987360", "MEAN_MOTION": 14.8010207, "ECCENTRICITY": 0.00029414, "INCLINATION": 74.0059, "RA_OF_ASC_NODE": 71.3921, "ARG_OF_PERICENTER": 204.4724, "MEAN_ANOMALY": 155.6313, "EPHEMERIS_TYPE": 0, "CLASSIFICATION_TYPE": "U", "NORAD_CAT_ID": 35290, "ELEMENT_SET_NO": 999, "REV_AT_EPOCH": 87868, "BSTAR": 0.0036735181, "MEAN_MOTION_DOT": 0.00027947, "MEAN_MOTION_DDOT": 0}, "tle": {"line1": "1 35290U 93036AJU 25340.68254615  .00027947  00000+0  36735-2 0  9995", "line2": "2 35290  74.0059  71.3921 0002941 204.4724 155.6313 14.80102070878682"}}, "geometry": {"type": "Point", "coordinates": [49.284547925065624, -48.896269160841115]}}, {"type": "Feature", "properties": {"norad_id": 35432, "name": "COSMOS 2251 DEB", "group": "cosmos-2251-debris", "lat": -27.67726778826442, "lon": -146.16049408408105, "alt_km": 512.4124824715609, "timestamp": "2025-12-08T03:50:07.392115+00:00", "meta": {"OBJECT_NAME": "COSMOS 2251 DEB", "OBJECT_ID": "1993-036AKA", "EPOCH": "2025-12-06T13:02:26.977920", "MEAN_MOTION": 15.20957014, "ECCENTRICITY": 0.00121909, "INCLINATION": 74.0212, "RA_OF_ASC_NODE": 28.5919, "ARG_OF_PERICENTER": 348.2705, "MEAN_ANOMALY": 11.8207, "EPHEMERIS_TYPE": 0, "CLASSIFICATION_TYPE": "U", "NORAD_CAT_ID": 35432, "ELEMENT_SET_NO": 999, "REV_AT_EPOCH": 87409, "BSTAR": 0.0090355975, "MEAN_MOTION_DOT": 0.00206244, "MEAN_MOTION_DDOT": 0}, "tle": {"line1": "1 35432U 93036AKA 25340.54336780  .00206244  00000+0  90356-2 0  9990", "line2": "2 35432  74.0212  28.5919 0012190 348.2705  11.8207 15.20957014874092"}}, "geometry": {"type": "Point", "coordinates": [-146.16049408408105, -27.67726778826442]}}, {"type": "Feature", "properties": {"norad_id": 35433, "name": "COSMOS 2251 DEB", "group": "cosmos-2251-debris", "lat": 25.526282332014777, "lon": -5.302756797837645, "alt_km": 757.3207133167525, "timestamp": "2025-12-08T03:50:07.392125+00:00", "meta": {"OBJECT_NAME": "COSMOS 2251 DEB", "OBJECT_ID": "1993-036AKB", "EPOCH": "2025-12-05T19:38:16.327392", "MEAN_MOTION": 14.34730306, "ECCENTRICITY": 0.00254596, "INCLINATION": 74.0335, "RA_OF_ASC_NODE": 351.128, "ARG_OF_PERICENTER": 48.4343, "MEAN_ANOMALY": 128.9694, "EPHEMERIS_TYPE": 0, "CLASSIFICATION_TYPE": "U", "NORAD_CAT_ID": 35433, "ELEMENT_SET_NO": 999, "REV_AT_EPOCH": 86481, "BSTAR": 0.00044039966, "MEAN_MOTION_DOT": 1.226e-05, "MEAN_MOTION_DDOT": 0}, "tle": {"line1": "1 35433U 93036AKB 25339.81824453  .00001226  00000+0  44040-3 0  9991", "line2": "2 35433  74.0335 351.1280 0025459  48.4343 128.9694 14.34730306864810"}}, "geometry": {"type": "Point", "coordinates": [-5.302756797837645, 25.526282332014777]}}, {"type": "Feature", "properties": {"norad_id": 35434, "name": "COSMOS 2251 DEB", "group": "cosmos-2251-debris", "lat": 73.96304541055524, "lon": -42.699609576862755, "alt_km": 857.0809581026133, "timestamp": "2025-12-08T03:50:07.392135+00:00", "meta": {"OBJECT_NAME": "COSMOS 2251 DEB", "OBJECT_ID": "1993-036AKC", "EPOCH": "2025-12-06T22:46:33.094560", "MEAN_MOTION": 14.25661537, "ECCENTRICITY": 0.00875949, "INCLINATION": 74.0405, "RA_OF_ASC_NODE": 224.0762, "ARG_OF_PERICENTER": 296.0242, "MEAN_ANOMALY": 63.1904, "EPHEMERIS_TYPE": 0, "CLASSIFICATION_TYPE": "U", "NORAD_CAT_ID": 35434, "ELEMENT_SET_NO": 999, "REV_AT_EPOCH": 86035, "BSTAR": 0.0011045236, "MEAN_MOTION_DOT": 2.7e-05, "MEAN_MOTION_DDOT": 0}, "tle": {"line1": "1 35434U 93036AKC 25340.94899415  .00002700  00000+0  11045-2 0  9994", "line2": "2 35434  74.0405 224.0762 0087594 296.0242  63.1904 14.25661537860357"}}, "geometry": {"type": "Point", "coordinates": [-42.699609576862755, 73.96304541055524]}}, {"type": "Feature", "properties": {"norad_id": 35435, "name": "COSMOS 2251 DEB", "group": "cosmos-2251-debris", "lat": 41.577990795974905, "lon": -81.65670746314782, "alt_km": 629.1447400503293, "timestamp": "2025-12-08T03:50:07.392145+00:00", "meta": {"OBJECT_NAME": "COSMOS 2251 DEB", "OBJECT_ID": "1993-036AKD", "EPOCH": "2025-12-06T15:33:19.570752", "MEAN_MOTION": 14.78155636, "ECCENTRICITY": 0.00089158, "INCLINATION": 74.011, "RA_OF_ASC_NODE": 116.0521, "ARG_OF_PERICENTER": 210.6381, "MEAN_ANOMALY": 164.7127, "EPHEMERIS_TYPE": 0, "CLASSIFICATION_TYPE": "U", "NORAD_CAT_ID": 35435, "ELEMENT_SET_NO": 999, "REV_AT_EPOCH": 87449, "BSTAR": 0.0041982547, "MEAN_MOTION_DOT": 0.00030535, "MEAN_MOTION_DDOT": 0}, "tle": {"line1": "1 35435U 93036AKD 25340.64814318  .00030535  00000+0  41983-2 0  9992", "line2": "2 35435  74.0110 116.0521 0008915 210.6381 164.7127 14.78155636874491"}}, "geometry": {"type": "Point", "coordinates": [-81.65670746314782, 41.577990795974905]}}, {"type": "Feature", "properties": {"norad_id": 35439, "name": "COSMOS 2251 DEB", "group": "cosmos-2251-debris", "lat": 35.761909015953584, "lon": 154.49819277119593, "alt_km": 895.3945464735252, "timestamp": "2025-12-08T03:50:07.392155+00:00", "meta": {"OBJECT_NAME": "COSMOS 2251 DEB", "OBJECT_ID": "1993-036AKH", "EPOCH": "2025-12-06T05:59:35.063232", "MEAN_MOTION": 13.92766526, "ECCENTRICITY": 0.02419007, "INCLINATION": 74.0202, "RA_OF_ASC_NODE": 145.8594, "ARG_OF_PERICENTER": 316.5639, "MEAN_ANOMALY": 224.7042, "EPHEMERIS_TYPE": 0, "CLASSIFICATION_TYPE": "U", "NORAD_CAT_ID": 35439, "ELEMENT_SET_NO": 999, "REV_AT_EPOCH": 83870, "BSTAR": 0.0024796152, "MEAN_MOTION_DOT": 4.056e-05, "MEAN_MOTION_DDOT": 0}, "tle": {"line1": "1 35439U 93036AKH 25340.24971138  .00004056  00000+0  24796-2 0  9998", "line2": "2 35439  74.0202 145.8594 0241900 316.5639 224.7042 13.92766526838700"}}, "geometry": {"type": "Point", "coordinates": [154.49819277119593, 35.761909015953584]}}, {"type": "Feature", "properties": {"norad_id": 35440, "name": "COSMOS 2251 DEB", "group": "cosmos-2251-debris", "lat": -62.24179130808211, "lon": -176.49921766818406, "alt_km": 651.2634111419247, "timestamp": "2025-12-08T03:50:07.392165+00:00", "meta": {"OBJECT_NAME": "COSMOS 2251 DEB", "OBJECT_ID": "1993-036AKJ", "EPOCH": "2025-12-06T22:42:44.249472", "MEAN_MOTION": 14.68767431, "ECCENTRICITY": 0.00690638, "INCLINATION": 74.015, "RA_OF_ASC_NODE": 218.8517, "ARG_OF_PERICENTER": 1.0906, "MEAN_ANOMALY": 359.0401, "EPHEMERIS_TYPE": 0, "CLASSIFICATION_TYPE": "U", "NORAD_CAT_ID": 35440, "ELEMENT_SET_NO": 999, "REV_AT_EPOCH": 68680, "BSTAR": 0.00081984037, "MEAN_MOTION_DOT": 4.928e-05, "MEAN_MOTION_DDOT": 0}, "tle": {"line1": "1 35440U 93036AKJ 25340.94634548  .00004928  00000+0  81984-3 0  9999", "line2": "2 35440  74.0150 218.8517 0069063   1.0906 359.0401 14.68767431686804"}}, "geometry": {"type": "Point", "coordinates": [-176.49921766818406, -62.24179130808211]}}, {"type": "Feature", "properties": {"norad_id": 35441, "name": "COSMOS 2251 DEB", "group": "cosmos-2251-debris", "lat": -8.90817270534567, "lon": -55.732627740238954, "alt_km": 710.689952226202, "timestamp": "2025-12-08T03:50:07.392176+00:00", "meta": {"OBJECT_NAME": "COSMOS 2251 DEB", "OBJECT_ID": "1993-036AKK", "EPOCH": "2025-12-06T04:16:00.147072", "MEAN_MOTION": 14.62424677, "ECCENTRICITY": 0.00374671, "INCLINATION": 74.1332, "RA_OF_ASC_NODE": 310.5953, "ARG_OF_PERICENTER": 209.6577, "MEAN_ANOMALY": 150.2468, "EPHEMERIS_TYPE": 0, "CLASSIFICATION_TYPE": "U", "NORAD_CAT_ID": 35441, "ELEMENT_SET_NO": 999, "REV_AT_EPOCH": 87334, "BSTAR": 0.0026738741, "MEAN_MOTION_DOT": 0.00013668, "MEAN_MOTION_DDOT": 0}, "tle": {"line1": "1 35441U 93036AKK 25340.17777948  .00013668  00000+0  26739-2 0  9994", "line2": "2 35441  74.1332 310.5953 0037467 209.6577 150.2468 14.62424677873342"}}, "geometry": {"type": "Point", "coordinates": [-55.732627740238954, -8.90817270534567]}}]}